[
  {
    "OBJECT_NAME": "STARLINK-11702 [DTC]",
    "OBJECT_ID": "25089B",
    "EPOCH": "2025-11-11T06:46:01.239456",
    "MEAN_MOTION": 15.70921535,
    "ECCENTRICITY": 0.000197,
    "INCLINATION": 42.999,
    "RA_OF_ASC_NODE": 285.9148,
    "ARG_OF_PERICENTER": 271.981,
    "MEAN_ANOMALY": 88.0832,
    "EPHEMERIS_TYPE": 0,
    "CLASSIFICATION_TYPE": "U",
    "NORAD_CAT_ID": 63752,
    "ELEMENT_SET_NO": 999,
    "REV_AT_EPOCH": 3151,
    "BSTAR": 0.00096636,
    "MEAN_MOTION_DOT": 0.00125878,
    "MEAN_MOTION_DDOT": 0.0,
    "TLE_LINE1": "1 63752U 25089B   25315.28195879  .00125878  00000+0  96636-3 0  9995",
    "TLE_LINE2": "2 63752  42.9990 285.9148 0001970 271.9810  88.0832 15.70921535 31517",
    "COMMENT": "Grouped by shell and plane from TLE"
  },
  {
    "OBJECT_NAME": "STARLINK-11706 [DTC]",
    "OBJECT_ID": "25089C",
    "EPOCH": "2025-11-11T06:23:04.483968",
    "MEAN_MOTION": 15.71000496,
    "ECCENTRICITY": 0.0004847,
    "INCLINATION": 43.0004,
    "RA_OF_ASC_NODE": 285.7846,
    "ARG_OF_PERICENTER": 254.0901,
    "MEAN_ANOMALY": 105.9433,
    "EPHEMERIS_TYPE": 0,
    "CLASSIFICATION_TYPE": "U",
    "NORAD_CAT_ID": 63753,
    "ELEMENT_SET_NO": 999,
    "REV_AT_EPOCH": 3151,
    "BSTAR": 0.002203,
    "MEAN_MOTION_DOT": 0.0029454,
    "MEAN_MOTION_DDOT": 0.0,
    "TLE_LINE1": "1 63753U 25089C   25315.26602412  .00294540  00000+0  22030-2 0  9999",
    "TLE_LINE2": "2 63753  43.0004 285.7846 0004847 254.0901 105.9433 15.71000496 31519",
    "COMMENT": "Grouped by shell and plane from TLE"
  },
  {
    "OBJECT_NAME": "STARLINK-11662 [DTC]",
    "OBJECT_ID": "25089D",
    "EPOCH": "2025-11-11T07:01:18.411744",
    "MEAN_MOTION": 15.71049197,
    "ECCENTRICITY": 0.0004493,
    "INCLINATION": 43.0,
    "RA_OF_ASC_NODE": 286.0033,
    "ARG_OF_PERICENTER": 272.5265,
    "MEAN_ANOMALY": 87.5089,
    "EPHEMERIS_TYPE": 0,
    "CLASSIFICATION_TYPE": "U",
    "NORAD_CAT_ID": 63754,
    "ELEMENT_SET_NO": 999,
    "REV_AT_EPOCH": 3156,
    "BSTAR": 0.0022315,
    "MEAN_MOTION_DOT": 0.00299113,
    "MEAN_MOTION_DDOT": 0.0,
    "TLE_LINE1": "1 63754U 25089D   25315.29257421  .00299113  00000+0  22315-2 0  9996",
    "TLE_LINE2": "2 63754  43.0000 286.0033 0004493 272.5265  87.5089 15.71049197 31561",
    "COMMENT": "Grouped by shell and plane from TLE"
  },
  {
    "OBJECT_NAME": "STARLINK-11681 [DTC]",
    "OBJECT_ID": "25089E",
    "EPOCH": "2025-11-11T07:16:36.529248",
    "MEAN_MOTION": 15.70965889,
    "ECCENTRICITY": 0.0001417,
    "INCLINATION": 42.9989,
    "RA_OF_ASC_NODE": 286.0843,
    "ARG_OF_PERICENTER": 307.2717,
    "MEAN_ANOMALY": 52.8022,
    "EPHEMERIS_TYPE": 0,
    "CLASSIFICATION_TYPE": "U",
    "NORAD_CAT_ID": 63755,
    "ELEMENT_SET_NO": 999,
    "REV_AT_EPOCH": 3151,
    "BSTAR": 0.0027103,
    "MEAN_MOTION_DOT": 0.00364957,
    "MEAN_MOTION_DDOT": 0.0,
    "TLE_LINE1": "1 63755U 25089E   25315.30320057  .00364957  00000+0  27103-2 0  9994",
    "TLE_LINE2": "2 63755  42.9989 286.0843 0001417 307.2717  52.8022 15.70965889 31517",
    "COMMENT": "Grouped by shell and plane from TLE"
  },
  {
    "OBJECT_NAME": "STARLINK-11688 [DTC]",
    "OBJECT_ID": "25089F",
    "EPOCH": "2025-11-11T06:53:39.694272",
    "MEAN_MOTION": 15.70993334,
    "ECCENTRICITY": 0.0003988,
    "INCLINATION": 42.9998,
    "RA_OF_ASC_NODE": 285.9557,
    "ARG_OF_PERICENTER": 253.0059,
    "MEAN_ANOMALY": 107.0372,
    "EPHEMERIS_TYPE": 0,
    "CLASSIFICATION_TYPE": "U",
    "NORAD_CAT_ID": 63756,
    "ELEMENT_SET_NO": 999,
    "REV_AT_EPOCH": 3140,
    "BSTAR": 0.0021179000000000003,
    "MEAN_MOTION_DOT": 0.00282609,
    "MEAN_MOTION_DDOT": 0.0,
    "TLE_LINE1": "1 63756U 25089F   25315.28726498  .00282609  00000+0  21179-2 0  9991",
    "TLE_LINE2": "2 63756  42.9998 285.9557 0003988 253.0059 107.0372 15.70993334 31405",
    "COMMENT": "Grouped by shell and plane from TLE"
  },
  {
    "OBJECT_NAME": "STARLINK-11676 [DTC]",
    "OBJECT_ID": "25089G",
    "EPOCH": "2025-11-11T06:07:48.257760",
    "MEAN_MOTION": 15.70958543,
    "ECCENTRICITY": 0.0001546,
    "INCLINATION": 42.9989,
    "RA_OF_ASC_NODE": 285.6984,
    "ARG_OF_PERICENTER": 291.2091,
    "MEAN_ANOMALY": 68.8611,
    "EPHEMERIS_TYPE": 0,
    "CLASSIFICATION_TYPE": "U",
    "NORAD_CAT_ID": 63757,
    "ELEMENT_SET_NO": 999,
    "REV_AT_EPOCH": 3140,
    "BSTAR": 0.0029135,
    "MEAN_MOTION_DOT": 0.00393613,
    "MEAN_MOTION_DDOT": 0.0,
    "TLE_LINE1": "1 63757U 25089G   25315.25541965  .00393613  00000+0  29135-2 0  9991",
    "TLE_LINE2": "2 63757  42.9989 285.6984 0001546 291.2091  68.8611 15.70958543 31408",
    "COMMENT": "Grouped by shell and plane from TLE"
  },
  {
    "OBJECT_NAME": "STARLINK-11705 [DTC]",
    "OBJECT_ID": "25089H",
    "EPOCH": "2025-11-11T07:08:57.876576",
    "MEAN_MOTION": 15.70970011,
    "ECCENTRICITY": 0.0001656,
    "INCLINATION": 42.9991,
    "RA_OF_ASC_NODE": 286.04,
    "ARG_OF_PERICENTER": 275.459,
    "MEAN_ANOMALY": 84.6089,
    "EPHEMERIS_TYPE": 0,
    "CLASSIFICATION_TYPE": "U",
    "NORAD_CAT_ID": 63758,
    "ELEMENT_SET_NO": 999,
    "REV_AT_EPOCH": 3146,
    "BSTAR": 0.002555,
    "MEAN_MOTION_DOT": 0.00343171,
    "MEAN_MOTION_DDOT": 0.0,
    "TLE_LINE1": "1 63758U 25089H   25315.29789209  .00343171  00000+0  25550-2 0  9992",
    "TLE_LINE2": "2 63758  42.9991 286.0400 0001656 275.4590  84.6089 15.70970011 31465",
    "COMMENT": "Grouped by shell and plane from TLE"
  },
  {
    "OBJECT_NAME": "STARLINK-11703 [DTC]",
    "OBJECT_ID": "25089J",
    "EPOCH": "2025-11-11T06:38:22.936704",
    "MEAN_MOTION": 15.70884265,
    "ECCENTRICITY": 0.0001619,
    "INCLINATION": 42.9984,
    "RA_OF_ASC_NODE": 285.8671,
    "ARG_OF_PERICENTER": 276.6266,
    "MEAN_ANOMALY": 83.4417,
    "EPHEMERIS_TYPE": 0,
    "CLASSIFICATION_TYPE": "U",
    "NORAD_CAT_ID": 63759,
    "ELEMENT_SET_NO": 999,
    "REV_AT_EPOCH": 3151,
    "BSTAR": 0.0022974000000000002,
    "MEAN_MOTION_DOT": 0.00306026,
    "MEAN_MOTION_DDOT": 0.0,
    "TLE_LINE1": "1 63759U 25089J   25315.27665436  .00306026  00000+0  22974-2 0  9991",
    "TLE_LINE2": "2 63759  42.9984 285.8671 0001619 276.6266  83.4417 15.70884265 31510",
    "COMMENT": "Grouped by shell and plane from TLE"
  },
  {
    "OBJECT_NAME": "STARLINK-11701 [DTC]",
    "OBJECT_ID": "25089K",
    "EPOCH": "2025-11-10T22:37:39.044064",
    "MEAN_MOTION": 15.70866568,
    "ECCENTRICITY": 0.0001752,
    "INCLINATION": 42.9992,
    "RA_OF_ASC_NODE": 287.6568,
    "ARG_OF_PERICENTER": 249.9552,
    "MEAN_ANOMALY": 110.1127,
    "EPHEMERIS_TYPE": 0,
    "CLASSIFICATION_TYPE": "U",
    "NORAD_CAT_ID": 63760,
    "ELEMENT_SET_NO": 999,
    "REV_AT_EPOCH": 3146,
    "BSTAR": 0.001159,
    "MEAN_MOTION_DOT": 0.00151169,
    "MEAN_MOTION_DDOT": 0.0,
    "TLE_LINE1": "1 63760U 25089K   25314.94281301  .00151169  00000+0  11590-2 0  9999",
    "TLE_LINE2": "2 63760  42.9992 287.6568 0001752 249.9552 110.1127 15.70866568 31461",
    "COMMENT": "Grouped by shell and plane from TLE"
  },
  {
    "OBJECT_NAME": "STARLINK-11660 [DTC]",
    "OBJECT_ID": "25089L",
    "EPOCH": "2025-11-11T06:30:44.346240",
    "MEAN_MOTION": 15.70798258,
    "ECCENTRICITY": 0.0001195,
    "INCLINATION": 42.9992,
    "RA_OF_ASC_NODE": 285.8249,
    "ARG_OF_PERICENTER": 315.3956,
    "MEAN_ANOMALY": 44.6815,
    "EPHEMERIS_TYPE": 0,
    "CLASSIFICATION_TYPE": "U",
    "NORAD_CAT_ID": 63761,
    "ELEMENT_SET_NO": 999,
    "REV_AT_EPOCH": 3146,
    "BSTAR": 0.0025213999999999996,
    "MEAN_MOTION_DOT": 0.00335927,
    "MEAN_MOTION_DDOT": 0.0,
    "TLE_LINE1": "1 63761U 25089L   25315.27134660  .00335927  00000+0  25214-2 0  9996",
    "TLE_LINE2": "2 63761  42.9992 285.8249 0001195 315.3956  44.6815 15.70798258 31460",
    "COMMENT": "Grouped by shell and plane from TLE"
  },
  {
    "OBJECT_NAME": "STARLINK-11699 [DTC]",
    "OBJECT_ID": "25089M",
    "EPOCH": "2025-11-11T06:00:19.087488",
    "MEAN_MOTION": 15.71094812,
    "ECCENTRICITY": 0.0006231,
    "INCLINATION": 42.999,
    "RA_OF_ASC_NODE": 286.5507,
    "ARG_OF_PERICENTER": 246.1432,
    "MEAN_ANOMALY": 113.8783,
    "EPHEMERIS_TYPE": 0,
    "CLASSIFICATION_TYPE": "U",
    "NORAD_CAT_ID": 63762,
    "ELEMENT_SET_NO": 999,
    "REV_AT_EPOCH": 3150,
    "BSTAR": 0.0023099,
    "MEAN_MOTION_DOT": 0.00310785,
    "MEAN_MOTION_DDOT": 0.0,
    "TLE_LINE1": "1 63762U 25089M   25315.25022092  .00310785  00000+0  23099-2 0  9994",
    "TLE_LINE2": "2 63762  42.9990 286.5507 0006231 246.1432 113.8783 15.71094812 31504",
    "COMMENT": "Grouped by shell and plane from TLE"
  },
  {
    "OBJECT_NAME": "STARLINK-11693 [DTC]",
    "OBJECT_ID": "25089N",
    "EPOCH": "2025-11-11T06:39:41.832864",
    "MEAN_MOTION": 15.70978271,
    "ECCENTRICITY": 0.0001947,
    "INCLINATION": 42.9992,
    "RA_OF_ASC_NODE": 285.8748,
    "ARG_OF_PERICENTER": 289.4698,
    "MEAN_ANOMALY": 70.5959,
    "EPHEMERIS_TYPE": 0,
    "CLASSIFICATION_TYPE": "U",
    "NORAD_CAT_ID": 63763,
    "ELEMENT_SET_NO": 999,
    "REV_AT_EPOCH": 3140,
    "BSTAR": 0.0035367,
    "MEAN_MOTION_DOT": 0.00483574,
    "MEAN_MOTION_DDOT": 0.0,
    "TLE_LINE1": "1 63763U 25089N   25315.27756751  .00483574  00000+0  35367-2 0  9991",
    "TLE_LINE2": "2 63763  42.9992 285.8748 0001947 289.4698  70.5959 15.70978271 31401",
    "COMMENT": "Grouped by shell and plane from TLE"
  }
]